ONEWEB-0136             
1 47282U 20100AA  25315.30573440  .00000178  00000+0  45917-3 0  9992
2 47282  87.8976  33.9290 0002175  97.3780 262.7596 13.12440250236083
ONEWEB-0137             
1 47283U 20100AB  25315.26355968 -.00000171  00000+0 -50984-3 0  9996
2 47283  87.8975  33.9433 0001667  97.5197 262.6121 13.12445144235989
ONEWEB-0138             
1 47284U 20100AC  25315.24246700 -.00000232  00000+0 -68052-3 0  9991
2 47284  87.8970  33.9562 0001934  97.9783 262.1565 13.12440980236060
ONEWEB-0139             
1 47285U 20100AD  25315.28155970  .00000336  00000+0  89988-3 0  9998
2 47285  87.8969  33.9382 0001756 100.6220 259.5107 13.12443490236149
ONEWEB-0140             
1 47286U 20100AE  25315.23598126 -.00000089  00000+0 -28255-3 0  9995
2 47286  87.8974  33.9337 0001898 100.1206 260.0137 13.12440727236108
ONEWEB-0141             
1 47287U 20100AF  25315.28127913  .00000303  00000+0  80646-3 0  9992
2 47287  87.8965  33.9357 0001506  94.5011 265.6290 13.12444802236094
ONEWEB-0142             
1 47288U 20100AG  25315.27019127 -.00000040  00000+0 -14574-3 0  9996
2 47288  87.8970  33.9592 0001644  86.9619 273.1697 13.12443160236084
ONEWEB-0143             
1 47289U 20100AH  25315.27978806  .00000287  00000+0  76170-3 0  9996
2 47289  87.8971  33.9535 0001737 101.5417 258.5907 13.12443163236068
